RADUGA-1 4 [-]          
1 25642U 99010A   17345.73448672  .00000106  00000-0  00000-0 0  9996
2 25642  14.2682  29.3838 0007178 229.7959 127.8944  1.00316565 68762
